{
    "links": {
        "self": "http://www.neowsapp.com/rest/v1/neo/54053746?api_key=iIulBulltgU6a56xZRHN4H3l9WmuAYTsLGpBGhQ2"
    },
    "id": "54053746",
    "neo_reference_id": "54053746",
    "name": "(2020 RV)",
    "designation": "2020 RV",
    "nasa_jpl_url": "http://ssd.jpl.nasa.gov/sbdb.cgi?sstr=54053746",
    "absolute_magnitude_h": 25.804,
    "estimated_diameter": {
        "kilometers": {
            "estimated_diameter_min": 0.0183550248,
            "estimated_diameter_max": 0.0410430833
        },
        "meters": {
            "estimated_diameter_min": 18.3550248414,
            "estimated_diameter_max": 41.043083274
        },
        "miles": {
            "estimated_diameter_min": 0.0114052801,
            "estimated_diameter_max": 0.0255029817
        },
        "feet": {
            "estimated_diameter_min": 60.2198997005,
            "estimated_diameter_max": 134.6557893286
        }
    },
    "is_potentially_hazardous_asteroid": false,
    "close_approach_data": [
        {
            "close_approach_date": "2020-09-08",
            "close_approach_date_full": "2020-Sep-08 05:05",
            "epoch_date_close_approach": 1599541500000,
            "relative_velocity": {
                "kilometers_per_second": "14.9786987207",
                "kilometers_per_hour": "53923.3153946658",
                "miles_per_hour": "33505.8511684244"
            },
            "miss_distance": {
                "astronomical": "0.0481829814",
                "lunar": "18.7431797646",
                "kilometers": "7208071.387689618",
                "miles": "4478887.8715200084"
            },
            "orbiting_body": "Earth"
        }
    ],
    "orbital_data": {
        "orbit_id": "1",
        "orbit_determination_date": "2020-09-08 04:12:14",
        "first_observation_date": "2020-09-06",
        "last_observation_date": "2020-09-08",
        "data_arc_in_days": 2,
        "observations_used": 25,
        "orbit_uncertainty": "8",
        "minimum_orbit_intersection": ".0450871",
        "jupiter_tisserand_invariant": "4.497",
        "epoch_osculation": "2459099.5",
        "eccentricity": ".2729985509487253",
        "semi_major_axis": "1.447754688318189",
        "inclination": "27.18403448120268",
        "ascending_node_longitude": "165.074804285079",
        "orbital_period": "636.2691942822063",
        "perihelion_distance": "1.0525197562781",
        "perihelion_argument": "182.2192457196051",
        "aphelion_distance": "1.842989620358278",
        "perihelion_time": "2459103.138562110239",
        "mean_anomaly": "357.9413079063748",
        "mean_motion": ".5657982552591225",
        "equinox": "J2000",
        "orbit_class": {
            "orbit_class_type": "AMO",
            "orbit_class_description": "Near-Earth asteroid orbits similar to that of 1221 Amor",
            "orbit_class_range": "1.017 AU < q (perihelion) < 1.3 AU"
        }
    },
    "is_sentry_object": false
}